OBJECT_NAME,OBJECT_ID,EPOCH,MEAN_MOTION,ECCENTRICITY,INCLINATION,RA_OF_ASC_NODE,ARG_OF_PERICENTER,MEAN_ANOMALY,EPHEMERIS_TYPE,CLASSIFICATION_TYPE,NORAD_CAT_ID,ELEMENT_SET_NO,REV_AT_EPOCH,BSTAR,MEAN_MOTION_DOT,MEAN_MOTION_DDOT
SL-12 R/B(2),2002-029D,2024-10-31T05:17:42.692928,0.99267115,.0009019,13.7805,14.3094,27.1887,157.3010,0,U,27444,999,8119,0,.22E-6,0
GALAXY 3C (G-3C),2002-030A,2024-10-31T13:08:36.128832,1.00272093,.0003072,2.2076,85.3133,63.2738,354.0691,0,U,27445,999,8199,0,-.134E-5,0
BLOCK DM-SL R/B,2002-030B,2024-10-31T10:27:26.646912,1.95817149,.7502638,1.2719,336.8301,125.0044,326.9537,0,U,27446,999,15904,.40031E-3,-.14E-5,0
NOAA 17,2002-032A,2024-10-31T13:44:56.888160,14.25780645,.0010539,98.7806,256.2018,274.3088,85.6887,0,U,27453,999,16238,.46472E-3,.106E-4,0
EUTELSAT 5 WEST A,2002-035A,2024-10-31T20:47:05.379936,0.98354714,.0008079,4.5374,79.5445,29.2128,347.1252,0,U,27460,999,8167,0,-.37E-6,0
N-STAR C,2002-035B,2024-10-31T04:44:03.812640,0.98952689,.0012116,9.8330,49.0304,175.3468,187.5309,0,U,27461,999,8156,0,-.155E-5,0
ARIANE 5 R/B,2002-035C,2024-10-31T17:55:42.545280,2.22694288,.7159034,5.7175,326.1437,354.0687,205.5102,0,U,27462,999,18169,.85956E-3,.24E-6,0
ARIANE 5 DEB [SYLDA],2002-035D,2024-10-31T03:36:51.377760,2.26766929,.7139309,5.3047,246.2589,152.2778,354.0883,0,U,27463,999,18462,.27097E-2,-.5E-7,0
COSMOS 2390,2002-036A,2024-10-31T19:09:18.705888,12.44606752,.0026561,82.4870,355.9889,115.9949,244.3872,0,U,27464,999,1400,.24595E-3,.45E-6,0
COSMOS 2391,2002-036B,2024-10-31T19:22:35.974848,12.44927267,.0027454,82.4863,352.7602,110.9370,249.4653,0,U,27465,999,1425,.21199E-3,.4E-6,0
SL-8 R/B,2002-036C,2024-10-31T09:16:30.156960,12.44367545,.0044867,82.4882,358.9146,131.4644,239.9282,0,U,27466,999,1373,.51535E-3,.83E-6,0
TITAN 4B DEB,2000-047C,2024-10-31T06:38:04.799616,14.90736294,.0067709,67.9947,147.4010,296.0077,63.4099,0,U,27469,999,21174,.20261E-3,.1961E-4,0
COSMOS 2392,2002-037A,2024-10-31T18:36:12.921120,12.06799875,.0590106,63.4034,160.8947,356.9635,77.0189,0,U,27470,999,98169,-.12412E-2,-.245E-5,0
SL-12 R/B(2),2002-037D,2024-10-31T12:54:23.391936,12.01416830,.0601829,63.4248,334.0336,347.1461,165.0131,0,U,27473,999,97718,-.24947E-3,-.95E-6,0
SL-12 DEB,2002-037G,2024-10-31T19:09:43.022304,12.02236854,.0602678,63.4208,319.3395,348.4022,184.2664,0,U,27476,999,97756,.37036E-2,.464E-5,0
MIDAS 4 DEB,1961-028H,2024-10-20T22:04:30.543744,8.66688099,.0294573,95.8634,91.2906,200.8734,322.8855,0,U,27478,999,53843,-.36603E-2,-.12E-6,0
CZ-4 DEB,1990-081CU,2024-10-27T21:14:03.980256,14.11291499,.0008949,98.8180,281.7790,189.3117,201.2424,0,U,27482,999,22419,.11624E-2,.2057E-4,0
M-V-1 DEB,1997-005G,2024-10-31T05:54:00.876672,6.31231150,.4633484,31.4821,341.1776,94.8363,351.3649,0,U,27489,999,47316,.16244E-2,.25762E-3,0
SL-16 DEB,1998-043L,2024-10-31T05:08:44.144448,13.80012546,.0206462,99.1370,42.2781,80.8788,281.5660,0,U,27491,999,32426,.68635E-3,.796E-5,0
CZ-4B DEB,1999-057MM,2024-10-31T01:38:35.896128,14.55520689,.0084611,98.4615,343.4719,59.2687,301.6810,0,U,27492,999,23681,.9198E-3,.4154E-4,0
CZ-4B DEB,1999-057MN,2024-10-31T09:00:27.438048,14.48023078,.0076233,98.6239,341.2580,179.4134,192.3354,0,U,27493,999,26513,.13356E-2,.5101E-4,0
COSMOS 2392 DEB,2002-037H,2024-10-31T19:16:57.372384,12.10764201,.0542154,63.4401,75.7417,331.5892,180.5025,0,U,27494,999,98222,-.75031E-3,-.17E-5,0
EUTELSAT 33D,2002-038A,2024-10-31T09:40:23.941632,0.99320446,.0003922,7.1032,69.0185,173.1945,200.7007,0,U,27499,999,4504,0,.29E-6,0
ATLAS 5 CENTAUR R/B,2002-038B,2024-10-31T06:36:00.809568,3.83886710,.6160213,17.8372,200.1852,138.9933,289.1047,0,U,27500,999,21340,.30168E-2,.32639E-3,0
ECHOSTAR 8,2002-039A,2024-10-31T14:12:42.687072,0.98512163,.0008371,7.3524,68.0104,62.8689,295.4505,0,U,27501,999,4620,0,-.187E-5,0
SL-12 R/B(2),2002-039B,2024-10-31T19:41:25.893312,2.01841858,.60126,21.9933,235.5317,55.9790,347.3006,0,U,27504,999,16365,0,.206E-5,0
EUTELSAT 36 WEST A,2002-040A,2024-10-31T20:09:12.889728,0.98293188,.0004572,5.7596,75.2244,32.9828,171.4589,0,U,27508,999,8086,0,-.72E-6,0
METEOSAT-8 (MSG-1),2002-040B,2024-10-31T15:18:52.157088,0.97903192,.0014887,10.0817,45.6829,64.9752,252.5158,0,U,27509,999,8112,0,-.26E-6,0
ARIANE 5 R/B,2002-040C,2024-10-31T12:10:25.619808,2.27275066,.7161583,4.9341,256.9783,222.7453,118.1787,0,U,27510,999,18413,.20957E-4,.5E-7,0
ARIANE 5 DEB [SYLDA],2002-040D,2024-10-31T13:00:21.087936,2.25668359,.7163536,6.0044,314.4464,98.7990,12.3794,0,U,27511,999,18247,.319E-2,.51E-6,0
INTELSAT 906 (IS-906),2002-041A,2024-10-31T12:11:03.152832,1.00271826,.000556,4.2846,80.2031,167.8928,39.1078,0,U,27513,999,8107,0,.32E-6,0
KODAMA (DRTS),2002-042B,2024-10-31T04:42:41.241888,0.99272121,.002081,10.0798,46.6833,206.8945,153.4097,0,U,27516,999,3968,0,-.175E-5,0
H-2A R/B(2),2002-042D,2024-10-30T06:42:43.340256,2.37344446,.7131387,28.6225,65.9892,298.4047,8.7398,0,U,27518,999,19123,.2009E-2,.545E-5,0
KALPANA-1 (METSAT 1),2002-043A,2024-10-31T12:43:49.846656,0.98339779,.0008375,12.0684,36.9373,137.8675,235.8864,0,U,27525,999,8065,0,-.175E-5,0
HISPASAT 30W-4,2002-044A,2024-10-26T01:04:42.642336,0.98930887,.005018,5.0138,77.5918,125.3080,167.5894,0,U,27528,999,8081,0,-.22E-5,0
NADEZHDA 7,2002-046A,2024-10-31T20:06:41.315616,13.72880449,.003629,82.9381,49.2247,179.9756,295.8104,0,U,27534,999,10724,.21944E-3,.218E-5,0
SL-8 R/B,2002-046B,2024-10-31T00:35:02.695200,13.74599645,.0037752,82.9366,30.8252,119.3271,53.4382,0,U,27535,999,10822,.24903E-3,.253E-5,0
CZ-4B DEB,1999-057MP,2024-10-31T07:36:48.204576,14.61403662,.0031015,98.5065,312.1403,134.9454,350.8106,0,U,27536,999,19773,.32358E-2,.16105E-3,0
PSLV DEB,2001-049MW,2024-10-31T20:04:38.735616,15.42419503,.0020747,97.6732,353.0385,209.7666,150.2401,0,U,27538,999,24117,.16176E-2,.70913E-3,0
INTEGRAL,2002-048A,2024-10-30T15:28:35.868576,0.37574384,.8623623,90.2902,14.7002,278.0587,6.4971,0,U,27540,999,2440,0,.226E-5,0
OPS 4682 DEB,1965-027BH,2024-10-31T10:16:08.246208,12.94492818,.0020555,90.2461,354.0882,2.8255,10.1018,0,U,27545,999,7841,.45253E-2,.1267E-4,0
EUTELSAT 33B,2002-051A,2024-10-31T20:20:23.375328,1.00344637,.0009012,7.5575,66.1724,306.1801,84.6235,0,U,27554,999,8041,0,-.341E-5,0
DELTA 4 R/B,2002-051B,2024-10-31T10:15:18.604224,2.35843457,.7116731,13.7152,264.2924,146.6747,290.9473,0,U,27555,999,18887,.10333E-2,-.21E-6,0
ALSAT 1,2002-054A,2024-10-31T19:55:52.471488,14.76058198,.0020923,98.2105,107.1202,24.0609,336.1572,0,U,27559,999,17566,.70868E-3,.4851E-4,0
MOZHAYETS,2002-054B,2024-10-31T20:52:29.143200,14.60442128,.0039988,98.4882,137.7231,58.0242,55.2364,0,U,27560,999,16456,.6583E-3,.3175E-4,0
RUBIN-3 & SL-8 R/B,2002-054C,2024-10-31T13:38:57.932448,14.57663478,.0045116,98.5154,142.7222,159.6228,200.6783,0,U,27561,999,16416,.473E-3,.2137E-4,0
TDRS 10,2002-055A,2024-10-31T15:26:38.779296,1.00266796,.0002183,9.8169,44.3831,285.0750,131.5396,0,U,27566,999,8027,0,.103E-5,0
COSMOS 1176 COOLANT,1980-034E,2024-10-29T07:13:51.103488,14.11494868,.0023831,64.8194,311.2894,19.8998,340.2999,0,U,27568,999,14771,.26146E-2,.4668E-4,0
COSMOS 1579 COOLANT,1984-069X,2024-10-24T10:42:51.564960,13.92460389,.0055178,65.0522,356.4984,221.7365,149.8421,0,U,27573,999,11556,.80706E-3,.963E-5,0
DELTA 1 DEB,1977-065GG,2024-10-31T09:53:27.506688,13.83818185,.0452638,29.1193,26.2435,2.5544,67.4526,0,U,27575,999,30903,.54763E-2,.13772E-3,0
DELTA 1 DEB,1975-052LD,2024-10-31T13:37:58.916928,13.68029585,.0117541,99.3505,160.4464,80.2781,312.5873,0,U,27576,999,67925,.22695E-3,.16E-5,0
DELTA 1 DEB,1975-052LE,2024-10-31T06:17:02.328864,13.46617799,.0077884,99.1226,213.5003,83.3673,72.4800,0,U,27577,999,45758,.40539E-2,.2453E-4,0
DELTA 1 DEB,1975-052LF,2024-10-31T04:25:56.313120,13.75015634,.004277,99.6195,200.2535,287.2633,227.0658,0,U,27578,999,17724,.26727E-2,.2523E-4,0
PSLV DEB,2001-049MY,2024-10-27T23:32:31.431840,14.76331762,.0045868,98.3098,313.1150,80.5318,280.1071,0,U,27580,999,19269,.61033E-3,.4253E-4,0
PSLV DEB,2001-049NA,2024-10-31T07:10:34.652352,14.96008984,.0037615,98.3861,319.7785,189.7808,170.2683,0,U,27582,999,20364,.23098E-2,.26301E-3,0
PSLV DEB,2001-049ND,2024-10-31T10:24:24.779232,14.82307831,.0056311,98.3154,301.8469,51.3545,309.2687,0,U,27585,999,21389,.12672E-2,.10364E-3,0
ARIANE 2 DEB,1988-040C,2024-10-31T03:25:11.643168,2.29404781,.7173176,7.2658,226.2884,353.7500,0.7047,0,U,27593,999,18612,.72883E-2,.1103E-4,0
ARIANE 2 DEB,1988-040D,2024-10-30T13:14:39.627456,2.34895236,.7153495,7.1162,173.6601,91.9389,343.6562,0,U,27594,999,18758,.21491E-1,.668E-4,0
ARIANE 2 DEB,1988-040E,2024-10-31T08:38:02.805216,2.29171643,.7174848,7.2669,228.0828,350.3889,1.1005,0,U,27595,999,18599,.43388E-2,.593E-5,0
ARIANE 1 DEB,1986-019VN,2024-10-31T04:55:31.941984,14.50294802,.0041094,98.1985,283.5568,351.9654,18.7451,0,U,27596,999,52788,.33846E-2,.13311E-3,0
MIDORI II (ADEOS-II),2002-056A,2024-10-31T19:58:59.425536,14.28657743,.0001667,98.7074,252.0710,44.0535,316.0779,0,U,27597,999,13974,.6466E-3,.158E-4,0
FEDSAT,2002-056B,2024-10-31T20:48:50.226336,14.29370296,.0007894,98.7749,260.9963,269.1453,90.8824,0,U,27598,999,14099,.3746E-3,.909E-5,0
WEOS,2002-056C,2024-10-31T19:12:59.161536,14.30372949,.0008567,98.7318,257.2077,247.7094,112.3180,0,U,27599,999,14151,.49271E-3,.1236E-4,0
MICRO LABSAT,2002-056D,2024-10-31T19:22:55.199712,14.30425501,.0009612,98.7275,256.3783,243.9397,116.0796,0,U,27600,999,14170,.4113E-3,.1025E-4,0
H-2A R/B,2002-056E,2024-10-31T19:22:11.368992,14.33137005,.0070414,98.2487,276.2427,193.1044,237.5428,0,U,27601,999,14333,.5176E-3,.1419E-4,0
ARIANE 2 DEB,1989-006AC,2024-10-12T05:21:47.878848,2.25278809,.7064144,6.8549,209.9154,200.5076,329.6963,0,U,27602,999,18922,.21762E-2,-.82E-6,0
NSS-6,2002-057A,2024-10-31T19:30:03.364416,0.99129186,.0008226,3.8382,81.6433,178.4991,232.7294,0,U,27603,999,8003,0,-.241E-5,0
ARIANE 44L R/B,2002-057B,2024-10-29T23:50:58.043040,2.47819187,.7105731,7.0711,158.1018,245.2965,28.5181,0,U,27604,999,18482,.48524E-2,.7927E-4,0
